NORAD_CAT_ID,OBJECT_NAME,OBJECT_TYPE,EPOCH,MEAN_MOTION,ECCENTRICITY,INCLINATION,RA_OF_ASC_NODE,ARG_OF_PERICENTER,MEAN_ANOMALY,BSTAR,MEAN_MOTION_DOT,MEAN_MOTION_DDOT,TLE_LINE0,TLE_LINE1,TLE_LINE2,SEMIMAJOR_AXIS,PERIOD,APOGEE,PERIGEE,DECAYED
53888.0,STARLINK-5034,PAYLOAD,2024-06-02 06:11:40,15.08843947,0.0001411,53.2189,341.7675,112.3118,247.8024,4.3596e-05,4.06e-06,0.0,0 STARLINK-5034,1 53888U 22119C   24154.25811197  .00000406  00000-0  43596-4 0  9998,2 53888  53.2189 341.7675 0001411 112.3118 247.8024 15.08843947 93827,6917.868,95.437,540.709,538.757,0.0
53888.0,STARLINK-5034,PAYLOAD,2024-06-02 22:05:32,15.08843017,0.000141,53.2194,338.7936,97.7217,262.3935,9.951e-05,1.296e-05,0.0,0 STARLINK-5034,1 53888U 22119C   24154.92051230  .00001296  00000-0  99510-4 0  9991,2 53888  53.2194 338.7936 0001410  97.7217 262.3935 15.08843017 94343,6917.871,95.437,540.712,538.761,0.0
53888.0,STARLINK-5034,PAYLOAD,2024-06-03 18:45:33,15.08841716,0.0001461,53.2199,334.9275,100.2837,259.832,0.00015191,2.131e-05,0.0,0 STARLINK-5034,1 53888U 22119C   24155.78163369  .00002131  00000-0  15191-3 0  9994,2 53888  53.2199 334.9275 0001461 100.2837 259.8320 15.08841716 94057,6917.875,95.437,540.751,538.729,0.0
53888.0,STARLINK-5034,PAYLOAD,2024-06-03 21:56:19,15.08843415,0.0001409,53.2207,334.3334,99.8652,260.25,0.0001033,1.357e-05,0.0,0 STARLINK-5034,1 53888U 22119C   24155.91411351  .00001357  00000-0  10330-3 0  9995,2 53888  53.2207 334.3334 0001409  99.8652 260.2500 15.08843415 94499,6917.87,95.437,540.71,538.76,0.0
53888.0,STARLINK-5034,PAYLOAD,2024-06-04 21:47:05,15.0886835,0.0001325,53.2132,329.8751,97.2243,262.89,-0.00024384,-4.17e-05,0.0,0 STARLINK-5034,1 53888U 22119C   24156.90770719 -.00004170  00000-0 -24384-3 0  9993,2 53888  53.2132 329.8751 0001325  97.2243 262.8900 15.08868350 94647,6917.794,95.436,540.575,538.742,0.0
53888.0,STARLINK-5034,PAYLOAD,2024-06-05 04:08:38,15.08844784,0.0001071,53.2278,328.6849,79.4764,280.6349,0.0001557,2.191e-05,0.0,0 STARLINK-5034,1 53888U 22119C   24157.17266912  .00002191  00000-0  15570-3 0  9994,2 53888  53.2278 328.6849 0001071  79.4764 280.6349 15.08844784 94269,6917.866,95.437,540.472,538.99,0.0
53888.0,STARLINK-5034,PAYLOAD,2024-06-05 10:30:11,15.08850826,0.0002635,53.217,327.4958,78.1476,281.9811,0.00018147,2.602e-05,0.0,0 STARLINK-5034,1 53888U 22119C   24157.43763019  .00002602  00000-0  18147-3 0  9993,2 53888  53.2170 327.4958 0002635  78.1476 281.9811 15.08850826 94724,6917.847,95.437,541.535,537.889,0.0
53888.0,STARLINK-5034,PAYLOAD,2024-06-05 18:27:07,15.08831822,0.0001449,53.2164,326.0101,89.4531,270.6627,-4.4783e-05,-1e-05,0.0,0 STARLINK-5034,1 53888U 22119C   24157.76883776 -.00001000  00000-0 -44783-4 0  9991,2 53888  53.2164 326.0101 0001449  89.4531 270.6627 15.08831822 94355,6917.905,95.438,540.773,538.768,0.0
53888.0,STARLINK-5034,PAYLOAD,2024-06-06 03:59:26,15.08837244,0.0001838,53.2188,324.2247,84.4005,275.7197,1.3844e-06,-2.66e-06,0.0,0 STARLINK-5034,1 53888U 22119C   24158.16627637 -.00000266  00000-0  13844-5 0  9995,2 53888  53.2188 324.2247 0001838  84.4005 275.7197 15.08837244 94414,6917.889,95.438,541.025,538.482,0.0
53888.0,STARLINK-5034,PAYLOAD,2024-06-07 10:11:45,15.08845107,0.0002125,53.2207,318.5761,81.2345,278.8888,-0.00017658,-3.098e-05,0.0,0 STARLINK-5034,1 53888U 22119C   24159.42483568 -.00003098  00000-0 -17658-3 0  9990,2 53888  53.2207 318.5761 0002125  81.2345 278.8888 15.08845107 94604,6917.865,95.437,541.2,538.26,0.0
53888.0,STARLINK-5034,PAYLOAD,2024-06-08 03:41:00,15.08839528,0.0001244,53.2166,315.3017,88.8585,271.255,9.386e-05,1.206e-05,0.0,0 STARLINK-5034,1 53888U 22119C   24160.15348062  .00001206  00000-0  93860-4 0  9998,2 53888  53.2166 315.3017 0001244  88.8585 271.2550 15.08839528 94712,6917.882,95.438,540.607,538.886,0.0
53888.0,STARLINK-5034,PAYLOAD,2024-06-08 19:34:52,15.08843794,0.0001861,53.2157,312.3285,100.2466,259.8736,0.00011792,1.589e-05,0.0,0 STARLINK-5034,1 53888U 22119C   24160.81588205  .00001589  00000-0  11792-3 0  9993,2 53888  53.2157 312.3285 0001861 100.2466 259.8736 15.08843794 95234,6917.869,95.437,541.021,538.446,0.0
53888.0,STARLINK-5034,PAYLOAD,2024-06-09 03:31:47,15.08856974,0.0001827,53.2168,310.8413,83.3689,276.7511,0.00037555,5.697e-05,0.0,0 STARLINK-5034,1 53888U 22119C   24161.14707431  .00005697  00000-0  37555-3 0  9993,2 53888  53.2168 310.8413 0001827  83.3689 276.7511 15.08856974 94863,6917.829,95.436,540.957,538.43,0.0
53888.0,STARLINK-5034,PAYLOAD,2024-06-09 16:14:53,15.08834689,0.0001467,53.2162,308.4614,97.9481,262.1678,3.9286e-05,3.37e-06,0.0,0 STARLINK-5034,1 53888U 22119C   24161.67700440  .00000337  00000-0  39286-4 0  9994,2 53888  53.2162 308.4614 0001467  97.9481 262.1678 15.08834689 94945,6917.897,95.438,540.776,538.747,0.0
53888.0,STARLINK-5034,PAYLOAD,2024-06-09 21:01:02,15.08847366,0.0001448,53.2157,307.5694,93.8267,266.2891,0.00020164,2.923e-05,0.0,0 STARLINK-5034,1 53888U 22119C   24161.87571848  .00002923  00000-0  20164-3 0  9991,2 53888  53.2157 307.5694 0001448  93.8267 266.2891 15.08847366 95391,6917.858,95.437,540.725,538.721,0.0
53888.0,STARLINK-5034,PAYLOAD,2024-06-10 03:22:34,15.0884614,0.0001671,53.2142,306.3796,93.9721,266.1463,0.00016991,2.418e-05,0.0,0 STARLINK-5034,1 53888U 22119C   24162.14067854  .00002418  00000-0  16991-3 0  9991,2 53888  53.2142 306.3796 0001671  93.9721 266.1463 15.08846140 95011,6917.862,95.437,540.883,538.571,0.0
53888.0,STARLINK-5034,PAYLOAD,2024-06-10 12:54:54,15.08834345,0.0001688,53.2153,304.5959,104.5432,255.5748,7.887e-06,-1.63e-06,0.0,0 STARLINK-5034,1 53888U 22119C   24162.53812872 -.00000163  00000-0  78870-5 0  9994,2 53888  53.2153 304.5959 0001688 104.5432 255.5748 15.08834345 95078,6917.898,95.438,540.93,538.595,0.0
53888.0,STARLINK-5034,PAYLOAD,2024-06-10 14:30:17,15.08836024,0.0001624,53.2166,304.2985,101.8865,258.2309,9.4047e-06,-1.38e-06,0.0,0 STARLINK-5034,1 53888U 22119C   24162.60436531 -.00000138  00000-0  94047-5 0  9992,2 53888  53.2166 304.2985 0001624 101.8865 258.2309 15.08836024 95505,6917.893,95.438,540.881,538.634,0.0
53888.0,STARLINK-5034,PAYLOAD,2024-06-10 20:51:49,15.08845804,0.0001454,53.2181,303.1072,118.2876,241.8263,2.6388e-05,1.32e-06,0.0,0 STARLINK-5034,1 53888U 22119C   24162.86932069  .00000132  00000-0  26388-4 0  9992,2 53888  53.2181 303.1072 0001454 118.2876 241.8263 15.08845804 95549,6917.863,95.437,540.734,538.722,0.0
53888.0,STARLINK-5034,PAYLOAD,2024-06-11 14:21:04,15.08838801,0.0001443,53.2179,299.8369,108.5117,251.6032,0.00018436,2.647e-05,0.0,0 STARLINK-5034,1 53888U 22119C   24163.59796529  .00002647  00000-0  18436-3 0  9999,2 53888  53.2179 299.8369 0001443 108.5117 251.6032 15.08838801 95658,6917.884,95.438,540.747,538.751,0.0
53888.0,STARLINK-5034,PAYLOAD,2024-06-12 01:28:45,15.08855522,0.0001248,53.2179,297.7592,93.2201,266.8934,0.00028929,4.321e-05,0.0,0 STARLINK-5034,1 53888U 22119C   24164.06163572  .00004321  00000-0  28929-3 0  9997,2 53888  53.2179 297.7592 0001248  93.2201 266.8934 15.08855522 95300,6917.833,95.437,540.561,538.835,0.0
53888.0,STARLINK-5034,PAYLOAD,2024-06-12 12:36:29,15.08822856,0.0001536,53.2175,295.6789,106.0133,254.1028,-1.1753e-05,-4.75e-06,0.0,0 STARLINK-5034,1 53888U 22119C   24164.52533714 -.00000475  00000-0 -11753-4 0  9993,2 53888  53.2175 295.6789 0001536 106.0133 254.1028 15.08822856 95373,6917.933,95.439,540.86,538.735,0.0
53888.0,STARLINK-5034,PAYLOAD,2024-06-12 15:47:15,15.08826434,0.0001375,53.2174,295.0876,104.5314,255.5831,-9.2628e-05,-1.761e-05,0.0,0 STARLINK-5034,1 53888U 22119C   24164.65781286 -.00001761  00000-0 -92628-4 0  9995,2 53888  53.2174 295.0876 0001375 104.5314 255.5831 15.08826434 95810,6917.922,95.438,540.738,538.836,0.0
53888.0,STARLINK-5034,PAYLOAD,2024-06-13 12:27:15,15.08844517,0.0001392,53.2183,291.2209,114.6012,245.5125,0.00023832,3.507e-05,0.0,0 STARLINK-5034,1 53888U 22119C   24165.51892804  .00003507  00000-0  23832-3 0  9998,2 53888  53.2183 291.2209 0001392 114.6012 245.5125 15.08844517 95529,6917.867,95.437,540.695,538.769,0.0
53888.0,STARLINK-5034,PAYLOAD,2024-06-13 14:02:38,15.08847608,0.0001346,53.2179,290.9235,114.53,245.5833,0.00031241,4.689e-05,0.0,0 STARLINK-5034,1 53888U 22119C   24165.58516720  .00004689  00000-0  31241-3 0  9990,2 53888  53.2179 290.9235 0001346 114.5300 245.5833 15.08847608 95954,6917.857,95.437,540.653,538.791,0.0
53888.0,STARLINK-5034,PAYLOAD,2024-06-13 17:13:24,15.08854767,0.0001219,53.2177,290.3275,105.6944,254.4183,0.00088018,0.00013753,0.0,0 STARLINK-5034,1 53888U 22119C   24165.71764853  .00013753  00000-0  88018-3 0  9993,2 53888  53.2177 290.3275 0001219 105.6944 254.4183 15.08854767 95977,6917.835,95.437,540.544,538.857,0.0
53888.0,STARLINK-5034,PAYLOAD,2024-06-14 13:53:25,15.08844222,0.0001015,53.2163,286.4605,84.343,275.7677,7.7423e-05,9.45e-06,0.0,0 STARLINK-5034,1 53888U 22119C   24166.57876455  .00000945  00000-0  77423-4 0  9998,2 53888  53.2163 286.4605 0001015  84.3430 275.7677 15.08844222 96107,6917.867,95.437,540.435,539.03,0.0
53888.0,STARLINK-5034,PAYLOAD,2024-06-14 17:04:11,15.08847157,0.0001019,53.2162,285.8655,82.8185,277.2923,0.00037945,5.757e-05,0.0,0 STARLINK-5034,1 53888U 22119C   24166.71124446  .00005757  00000-0  37945-3 0  9990,2 53888  53.2162 285.8655 0001019  82.8185 277.2923 15.08847157 96121,6917.859,95.437,540.428,539.019,0.0
53888.0,STARLINK-5034,PAYLOAD,2024-06-15 13:44:12,15.08842227,0.0001013,53.2154,281.9989,83.6618,276.4489,0.00094531,0.0001479,0.0,0 STARLINK-5034,1 53888U 22119C   24167.57236891  .00014790  00000-0  94531-3 0  9994,2 53888  53.2154 281.9989 0001013  83.6618 276.4489 15.08842227 96258,6917.874,95.437,540.439,539.038,0.0
53888.0,STARLINK-5034,PAYLOAD,2024-06-15 15:19:35,15.08846675,9.45e-05,53.2154,281.7017,84.9395,275.1705,0.0011702,0.00018388,0.0,0 STARLINK-5034,1 53888U 22119C   24167.63860859  .00018388  00000-0  11702-2 0  9993,2 53888  53.2154 281.7017 0000945  84.9395 275.1705 15.08846675 96266,6917.86,95.437,540.379,539.071,0.0
